{
"type": "FeatureCollection",
"name": "Rail_Tor_Ayat",
"crs": { "type": "name", "properties": { "name": "urn:ogc:def:crs:OGC:1.3:CRS84" } },
"features": [
{ "type": "Feature", "properties": { "osm_id": "255529438", "code": 6102, "fclass": "light_rail", "name": null, "layer": 2, "bridge": "T", "tunnel": "F" }, "geometry": { "type": "MultiLineString", "coordinates": [ [ [ 38.722255, 9.0116308 ], [ 38.7229011, 9.0113441 ], [ 38.7238394, 9.0108794 ], [ 38.7244008, 9.0106427 ], [ 38.7247214, 9.0105845 ], [ 38.7249735, 9.0105817 ], [ 38.7252183, 9.0106099 ], [ 38.7255157, 9.0106933 ], [ 38.7258603, 9.0108505 ], [ 38.7265272, 9.0113395 ], [ 38.7270352, 9.0116953 ], [ 38.7272923, 9.0118531 ], [ 38.7275634, 9.0119602 ], [ 38.7276779, 9.0119955 ], [ 38.7278034, 9.0120228 ], [ 38.7278879, 9.0120354 ], [ 38.7279725, 9.012048 ], [ 38.7281045, 9.0120607 ], [ 38.7282399, 9.0120681 ], [ 38.7283636, 9.0120689 ], [ 38.7285094, 9.0120598 ], [ 38.7287363, 9.0120429 ], [ 38.729264, 9.012003 ], [ 38.7312756, 9.0118433 ], [ 38.7319147, 9.0117816 ], [ 38.7330481, 9.0116632 ], [ 38.7355547, 9.0114029 ], [ 38.7359906, 9.0113478 ], [ 38.7425699, 9.0105044 ], [ 38.7430132, 9.0104473 ], [ 38.7438486, 9.0103545 ], [ 38.743952, 9.01035 ], [ 38.744207, 9.010347 ], [ 38.744954, 9.0103938 ], [ 38.7462483, 9.0105323 ], [ 38.7468635, 9.010595 ], [ 38.7476651, 9.0106425 ], [ 38.7478131, 9.0106687 ], [ 38.7481337, 9.0107276 ], [ 38.7482136, 9.0107599 ], [ 38.7483327, 9.0108349 ], [ 38.7487135, 9.0110658 ], [ 38.7489468, 9.0111954 ], [ 38.7491637, 9.011293 ], [ 38.7493593, 9.0113645 ], [ 38.7495525, 9.0114224 ], [ 38.7497925, 9.0114631 ], [ 38.7500183, 9.0114953 ], [ 38.7507512, 9.0115638 ], [ 38.7519724, 9.0116965 ], [ 38.7522834, 9.0117276 ], [ 38.7531352, 9.0117833 ], [ 38.7537474, 9.0118334 ], [ 38.7541601, 9.0118573 ], [ 38.7554164, 9.0120679 ], [ 38.7562252, 9.0121257 ], [ 38.7564785, 9.0121336 ], [ 38.7567478, 9.0121135 ], [ 38.7577687, 9.011942 ], [ 38.7580544, 9.0118823 ], [ 38.7584353, 9.0118102 ], [ 38.7588226, 9.011732 ], [ 38.7617841, 9.0112109 ], [ 38.7626096, 9.0110756 ], [ 38.7634544, 9.0109814 ], [ 38.7638482, 9.0109439 ], [ 38.7647445, 9.0108587 ], [ 38.7654689, 9.0107169 ], [ 38.766447, 9.0105777 ], [ 38.7668739, 9.0105439 ], [ 38.7671478, 9.0105242 ], [ 38.7673391, 9.0105081 ], [ 38.7685106, 9.0103999 ], [ 38.7687993, 9.010377 ], [ 38.7690714, 9.010336 ], [ 38.7691973, 9.010317 ], [ 38.7696491, 9.0102594 ], [ 38.7700112, 9.0102146 ], [ 38.7704162, 9.0101652 ], [ 38.7711501, 9.0100615 ], [ 38.7716643, 9.0100604 ], [ 38.772128, 9.0100547 ], [ 38.7726193, 9.0101309 ], [ 38.7729724, 9.0101948 ], [ 38.7733439, 9.0103038 ], [ 38.7738447, 9.0105102 ], [ 38.7743993, 9.0107788 ], [ 38.774607, 9.0108797 ], [ 38.7747456, 9.0109487 ], [ 38.7749465, 9.0110518 ], [ 38.7752303, 9.0112049 ], [ 38.7759633, 9.0115748 ], [ 38.7762531, 9.0117215 ], [ 38.7770804, 9.0121487 ], [ 38.7774109, 9.0123221 ], [ 38.7782912, 9.0127916 ], [ 38.7792154, 9.0132653 ], [ 38.7798365, 9.0135847 ], [ 38.7801585, 9.0137525 ], [ 38.7803683, 9.0138579 ], [ 38.780777, 9.0140483 ], [ 38.7814931, 9.0143207 ], [ 38.7817862, 9.0144181 ], [ 38.7820333, 9.0144964 ], [ 38.7824518, 9.0146268 ], [ 38.7826921, 9.0146984 ], [ 38.7828996, 9.0147613 ], [ 38.7832562, 9.0148578 ], [ 38.7835405, 9.0149244 ], [ 38.7844247, 9.01512 ], [ 38.7853833, 9.0153375 ], [ 38.7865525, 9.0156 ], [ 38.7877487, 9.0158447 ], [ 38.7888779, 9.0161108 ], [ 38.7892864, 9.0162057 ], [ 38.7893254, 9.016216 ], [ 38.7905177, 9.0164685 ], [ 38.7917644, 9.0167413 ], [ 38.7921796, 9.0168341 ], [ 38.7925026, 9.016907 ], [ 38.7934517, 9.0171227 ], [ 38.7938661, 9.0172399 ], [ 38.7948793, 9.0175497 ], [ 38.7952322, 9.0176631 ], [ 38.7959087, 9.0178994 ], [ 38.796842, 9.0181863 ], [ 38.7974613, 9.0183911 ], [ 38.7983515, 9.0186777 ], [ 38.7989795, 9.0188546 ], [ 38.7995142, 9.0189859 ], [ 38.8006252, 9.0192093 ], [ 38.8012024, 9.0192928 ], [ 38.8018206, 9.0194005 ], [ 38.8023256, 9.0194898 ], [ 38.8027311, 9.0195567 ], [ 38.8033657, 9.0196641 ], [ 38.8037924, 9.0197435 ], [ 38.8043404, 9.0198589 ], [ 38.8050937, 9.0199928 ], [ 38.8057608, 9.0201084 ], [ 38.8065911, 9.020253 ], [ 38.8071675, 9.0203572 ], [ 38.8075291, 9.0204171 ], [ 38.8078753, 9.0204575 ], [ 38.8081979, 9.0204757 ], [ 38.8086693, 9.0204629 ], [ 38.809027, 9.0204201 ], [ 38.8095274, 9.0203321 ], [ 38.8097692, 9.0202834 ], [ 38.8101814, 9.0202025 ], [ 38.8104517, 9.0201495 ], [ 38.8110442, 9.0200331 ], [ 38.811319, 9.0199791 ], [ 38.8115023, 9.0199502 ], [ 38.8116625, 9.0199274 ], [ 38.8120365, 9.0198899 ], [ 38.812858, 9.0198407 ], [ 38.8133602, 9.0198117 ], [ 38.8138147, 9.0197859 ], [ 38.8142106, 9.0197646 ], [ 38.8147682, 9.0197311 ], [ 38.8152689, 9.0197052 ], [ 38.8170674, 9.0195795 ], [ 38.8173684, 9.0195448 ], [ 38.8176865, 9.0194951 ], [ 38.8181786, 9.0194126 ], [ 38.818721, 9.019308 ], [ 38.8194495, 9.0191627 ], [ 38.8199524, 9.019064 ], [ 38.820453, 9.0189657 ], [ 38.8206961, 9.0189254 ], [ 38.8209149, 9.0188902 ], [ 38.821162, 9.0188564 ], [ 38.8213729, 9.018842 ], [ 38.8215683, 9.0188287 ], [ 38.8217433, 9.0188262 ], [ 38.8219449, 9.0188239 ], [ 38.8222529, 9.0188307 ], [ 38.8225349, 9.0188489 ], [ 38.822841, 9.0188806 ], [ 38.8231084, 9.0189169 ], [ 38.8233579, 9.0189639 ], [ 38.8236069, 9.0190144 ], [ 38.8238606, 9.0190787 ], [ 38.8242078, 9.0191841 ], [ 38.8247662, 9.0193918 ], [ 38.8259035, 9.019846 ], [ 38.8259052, 9.0198467 ], [ 38.8260526, 9.019896 ], [ 38.8273343, 9.0204249 ], [ 38.8280029, 9.0206942 ], [ 38.8283765, 9.0208389 ], [ 38.82873, 9.0209802 ], [ 38.829915, 9.0214596 ], [ 38.8301212, 9.0215417 ], [ 38.8303973, 9.021642 ], [ 38.8306772, 9.0217258 ], [ 38.8309592, 9.0217805 ], [ 38.8311163, 9.0217988 ], [ 38.8313273, 9.0218171 ], [ 38.8316586, 9.0218216 ], [ 38.8319266, 9.0218171 ], [ 38.8323194, 9.021811 ], [ 38.8338846, 9.0217531 ], [ 38.8348004, 9.0217077 ], [ 38.8358657, 9.0216664 ], [ 38.8374201, 9.0215934 ], [ 38.8377698, 9.0215812 ], [ 38.8393658, 9.0215143 ], [ 38.8401561, 9.0214899 ], [ 38.8415259, 9.0214257 ], [ 38.8418187, 9.0214128 ], [ 38.842611, 9.0213852 ], [ 38.843358, 9.021362 ], [ 38.8440463, 9.021333 ], [ 38.8458899, 9.0212404 ], [ 38.8479958, 9.0211096 ], [ 38.8504858, 9.0209726 ], [ 38.8516465, 9.0209156 ], [ 38.8529759, 9.0208434 ], [ 38.8538119, 9.0208058 ], [ 38.8546416, 9.0207764 ], [ 38.8555829, 9.0207277 ], [ 38.8570726, 9.0206531 ], [ 38.8585084, 9.0205831 ], [ 38.8588688, 9.0205603 ], [ 38.859246, 9.0205433 ], [ 38.8597927, 9.0205363 ], [ 38.8603715, 9.0205653 ], [ 38.8611573, 9.0206173 ], [ 38.8621569, 9.0206872 ], [ 38.8632946, 9.0207853 ], [ 38.8636849, 9.0208123 ], [ 38.8642578, 9.0208415 ], [ 38.8649163, 9.0208588 ], [ 38.8659075, 9.0208859 ], [ 38.8668441, 9.020892 ], [ 38.8673818, 9.0208981 ], [ 38.86824, 9.0209488 ], [ 38.8686193, 9.0209713 ], [ 38.8707803, 9.0210994 ], [ 38.871161, 9.021123 ], [ 38.8717801, 9.0211613 ], [ 38.8722358, 9.0211847 ], [ 38.8733509, 9.0212396 ] ] ] } }
]
}
