{
"type": "FeatureCollection",
"name": "Rail_Piassa_Kality",
"crs": { "type": "name", "properties": { "name": "urn:ogc:def:crs:OGC:1.3:CRS84" } },
"features": [
{ "type": "Feature", "properties": { "osm_id": "255527320", "code": 6102, "fclass": "light_rail", "name": "Piazza-Kality line", "layer": 0, "bridge": "F", "tunnel": "F" }, "geometry": { "type": "MultiLineString", "coordinates": [ [ [ 38.7644053, 8.9359984 ], [ 38.7643502, 8.9360767 ], [ 38.7636586, 8.9370843 ], [ 38.7634674, 8.9373625 ], [ 38.7630145, 8.9379795 ], [ 38.7628285, 8.9382768 ], [ 38.762757, 8.9384373 ], [ 38.7627, 8.9385915 ], [ 38.7626644, 8.9387404 ], [ 38.7626443, 8.9389063 ], [ 38.7626516, 8.9392233 ], [ 38.7627487, 8.9395496 ], [ 38.7629235, 8.9398283 ], [ 38.7661648, 8.9430608 ], [ 38.7663263, 8.9432205 ], [ 38.7664501, 8.9434245 ], [ 38.7665275, 8.943598 ], [ 38.7665722, 8.9437883 ], [ 38.7665838, 8.9439875 ], [ 38.7665641, 8.9441953 ], [ 38.7665141, 8.9444009 ], [ 38.7664309, 8.9445983 ], [ 38.76626, 8.9449474 ], [ 38.7648861, 8.947821 ], [ 38.7634264, 8.9511312 ], [ 38.7633819, 8.9514469 ], [ 38.7633705, 8.9516249 ], [ 38.7633866, 8.9519774 ], [ 38.7634668, 8.9532118 ], [ 38.7634749, 8.9533172 ], [ 38.7638225, 8.9567758 ], [ 38.7638791, 8.9575299 ], [ 38.7639854, 8.9588129 ], [ 38.7629435, 8.9656926 ], [ 38.7624989, 8.9684956 ], [ 38.7623912, 8.9688039 ], [ 38.7614413, 8.9707765 ], [ 38.7611705, 8.9716718 ], [ 38.760738, 8.9731017 ], [ 38.7601885, 8.9750576 ], [ 38.7600392, 8.9756448 ], [ 38.7599762, 8.9759085 ], [ 38.759887, 8.9761601 ], [ 38.759594, 8.9767602 ], [ 38.759488, 8.9769907 ], [ 38.7593843, 8.9772341 ], [ 38.7591138, 8.9780213 ], [ 38.7588424, 8.9788772 ], [ 38.7588009, 8.9790946 ], [ 38.7587571, 8.9793976 ], [ 38.758752, 8.9796055 ], [ 38.7588, 8.9800706 ], [ 38.7588969, 8.9804763 ], [ 38.7590598, 8.9812647 ], [ 38.7591784, 8.9817641 ], [ 38.7594099, 8.9826897 ], [ 38.7594747, 8.9830135 ], [ 38.759571, 8.9833519 ], [ 38.7597506, 8.9837452 ], [ 38.7598358, 8.9839757 ], [ 38.759871, 8.984197 ], [ 38.7598266, 8.9845317 ], [ 38.7598432, 8.9847147 ], [ 38.7598914, 8.9849232 ], [ 38.7599636, 8.9853238 ], [ 38.7599811, 8.9857673 ], [ 38.7600439, 8.9863028 ], [ 38.7600413, 8.9866521 ], [ 38.7600583, 8.9870143 ], [ 38.7600361, 8.9872316 ], [ 38.7599797, 8.987348 ], [ 38.7598134, 8.9875756 ], [ 38.7597165, 8.9880516 ], [ 38.759523, 8.988781 ], [ 38.7594572, 8.9889795 ], [ 38.7593817, 8.989398 ], [ 38.759311, 8.9896796 ], [ 38.7592535, 8.9899496 ], [ 38.7591941, 8.9903173 ], [ 38.7591562, 8.9906112 ], [ 38.7590302, 8.9913639 ], [ 38.7590145, 8.9917274 ], [ 38.7590263, 8.9920016 ], [ 38.7590682, 8.9921956 ], [ 38.7592417, 8.9928798 ], [ 38.7593104, 8.9930616 ], [ 38.7594532, 8.9934541 ], [ 38.759626, 8.9939217 ], [ 38.7597498, 8.9944087 ], [ 38.7597991, 8.9948507 ], [ 38.7597867, 8.9950824 ], [ 38.759769, 8.9952209 ], [ 38.7597267, 8.9954377 ], [ 38.7596241, 8.9958425 ], [ 38.759444, 8.9967097 ], [ 38.7592476, 8.9973202 ], [ 38.7591991, 8.9974444 ], [ 38.7589032, 8.9980808 ], [ 38.7587099, 8.9985006 ], [ 38.7586576, 8.9986838 ], [ 38.7586002, 8.9988794 ], [ 38.7585568, 8.9992534 ], [ 38.758608, 8.9998944 ], [ 38.7586357, 9.0005302 ], [ 38.758662, 9.0012208 ], [ 38.7586572, 9.0016689 ], [ 38.758689, 9.0026622 ], [ 38.7587342, 9.0036541 ], [ 38.7587565, 9.0040396 ], [ 38.7587791, 9.0048873 ], [ 38.7587905, 9.0053161 ], [ 38.7588014, 9.0056733 ], [ 38.7588194, 9.0062655 ], [ 38.7588626, 9.0068424 ], [ 38.7588796, 9.0072058 ], [ 38.7588966, 9.0076417 ], [ 38.7589256, 9.0081642 ], [ 38.758966, 9.0088594 ], [ 38.7589839, 9.0093266 ], [ 38.759038, 9.0097422 ], [ 38.7591267, 9.0101949 ], [ 38.759191, 9.0106485 ], [ 38.7592375, 9.0109841 ], [ 38.759264, 9.0111991 ], [ 38.7592489, 9.0113213 ], [ 38.7592113, 9.0114177 ], [ 38.7591503, 9.0115062 ], [ 38.7590648, 9.0115786 ], [ 38.7589599, 9.0116321 ], [ 38.7580544, 9.0118823 ], [ 38.7577687, 9.011942 ], [ 38.7567478, 9.0121135 ], [ 38.7564785, 9.0121336 ], [ 38.7562252, 9.0121257 ], [ 38.7554164, 9.0120679 ], [ 38.7541601, 9.0118573 ], [ 38.7537474, 9.0118334 ], [ 38.7531352, 9.0117833 ], [ 38.7522834, 9.0117276 ], [ 38.7519724, 9.0116965 ], [ 38.7507512, 9.0115638 ], [ 38.7500183, 9.0114953 ], [ 38.7497925, 9.0114631 ], [ 38.7495525, 9.0114224 ], [ 38.7493593, 9.0113645 ], [ 38.7491637, 9.011293 ], [ 38.7489468, 9.0111954 ], [ 38.7487135, 9.0110658 ], [ 38.7483327, 9.0108349 ], [ 38.7482136, 9.0107599 ], [ 38.7481337, 9.0107276 ], [ 38.7478131, 9.0106687 ], [ 38.7476651, 9.0106425 ], [ 38.7468635, 9.010595 ], [ 38.7462483, 9.0105323 ], [ 38.744954, 9.0103938 ], [ 38.744207, 9.010347 ], [ 38.743952, 9.01035 ], [ 38.7438486, 9.0103545 ], [ 38.7430132, 9.0104473 ], [ 38.7425699, 9.0105044 ], [ 38.7359906, 9.0113478 ], [ 38.7355547, 9.0114029 ], [ 38.7351727, 9.0114807 ], [ 38.7347696, 9.0115382 ], [ 38.7346217, 9.0115909 ], [ 38.73451, 9.0116546 ], [ 38.7344302, 9.0117197 ], [ 38.7343852, 9.0117724 ], [ 38.7343061, 9.0119128 ], [ 38.734286, 9.0120082 ], [ 38.734284, 9.0121142 ], [ 38.7342897, 9.0122473 ], [ 38.7343013, 9.0123824 ], [ 38.7346258, 9.0148865 ], [ 38.734701, 9.0154664 ], [ 38.7347516, 9.0159161 ], [ 38.7348803, 9.0171665 ], [ 38.7349769, 9.0180115 ], [ 38.7349822, 9.0181329 ], [ 38.7349556, 9.0182543 ], [ 38.7349284, 9.0183548 ], [ 38.7348622, 9.0184836 ], [ 38.7347865, 9.0186093 ], [ 38.7346595, 9.0187479 ], [ 38.7344678, 9.0188875 ], [ 38.7340785, 9.0190938 ], [ 38.7338423, 9.0192173 ], [ 38.7336401, 9.0193392 ], [ 38.7334811, 9.0194868 ], [ 38.7333641, 9.0196705 ], [ 38.733293, 9.0198532 ], [ 38.7332726, 9.019954 ], [ 38.7332708, 9.0200455 ], [ 38.7332691, 9.0202126 ], [ 38.733286, 9.0204342 ], [ 38.7333268, 9.0208497 ], [ 38.7333708, 9.0212742 ], [ 38.7334142, 9.0217488 ], [ 38.7334585, 9.0222799 ], [ 38.7335687, 9.023303 ], [ 38.7335339, 9.0242499 ], [ 38.7334464, 9.0251527 ], [ 38.7332909, 9.0263687 ], [ 38.7332334, 9.026997 ], [ 38.7330414, 9.0283132 ], [ 38.7329153, 9.028962 ], [ 38.7327719, 9.029766 ], [ 38.7325173, 9.0314075 ], [ 38.7322676, 9.0331275 ], [ 38.7321847, 9.0336963 ], [ 38.7322354, 9.0338215 ], [ 38.7323295, 9.0339267 ], [ 38.7324905, 9.0339955 ], [ 38.732631, 9.0340162 ], [ 38.7330575, 9.0340747 ], [ 38.7349554, 9.0343346 ], [ 38.7364977, 9.0345492 ], [ 38.7366664, 9.0345685 ], [ 38.7370178, 9.0345473 ], [ 38.7373533, 9.0344724 ], [ 38.7384246, 9.0342042 ], [ 38.7394047, 9.0339478 ], [ 38.7401314, 9.0338406 ], [ 38.7412184, 9.0339508 ], [ 38.7429463, 9.0341977 ], [ 38.7454699, 9.0344959 ], [ 38.7469164, 9.0346311 ], [ 38.7472102, 9.0346708 ], [ 38.7476742, 9.034764 ], [ 38.7481339, 9.0348609 ], [ 38.748345, 9.0349119 ], [ 38.7484783, 9.0349441 ], [ 38.7487613, 9.0350324 ], [ 38.7490966, 9.0351573 ], [ 38.7493632, 9.035269 ], [ 38.7496212, 9.0354015 ], [ 38.7500265, 9.0356135 ], [ 38.7503712, 9.0357699 ], [ 38.7506041, 9.0358353 ], [ 38.7508808, 9.035848 ], [ 38.7514374, 9.0358533 ], [ 38.7517767, 9.035897 ], [ 38.7519725, 9.0359699 ], [ 38.752128, 9.0360824 ], [ 38.7522662, 9.0362757 ], [ 38.7523077, 9.0364797 ], [ 38.7522635, 9.0369288 ], [ 38.7522447, 9.037244 ], [ 38.7522554, 9.037538 ], [ 38.7523574, 9.0378108 ], [ 38.7524671, 9.0379496 ], [ 38.7526403, 9.0380943 ], [ 38.7530507, 9.03833 ], [ 38.7534357, 9.0385373 ], [ 38.7536718, 9.0386621 ], [ 38.7548962, 9.0393293 ] ] ] } }
]
}
